STARLINK-1559           
1 46077U 20055BC  26068.23360559  .00042685  00000+0  14779-2 0  9995
2 46077  53.0254  76.0659 0004229  33.9710 326.1559 15.29461733309518
STARLINK-33964          
1 64118U 25110Y   26068.29504087  .00030038  00000+0  10226-2 0  9992
2 64118  53.1608  28.4792 0001047  79.4567 280.6551 15.30188737 45826
