[{"OBJECT_NAME":"STARLINK-1559","OBJECT_ID":"2020-055BC","EPOCH":"2026-03-09T05:36:23.522976","MEAN_MOTION":15.29461733,"ECCENTRICITY":0.0004229,"INCLINATION":53.0254,"RA_OF_ASC_NODE":76.0659,"ARG_OF_PERICENTER":33.971,"MEAN_ANOMALY":326.1559,"EPHEMERIS_TYPE":0,"CLASSIFICATION_TYPE":"U","NORAD_CAT_ID":46077,"ELEMENT_SET_NO":999,"REV_AT_EPOCH":30951,"BSTAR":0.0014778793,"MEAN_MOTION_DOT":0.00042685,"MEAN_MOTION_DDOT":0},{"OBJECT_NAME":"STARLINK-33964","OBJECT_ID":"2025-110Y","EPOCH":"2026-03-09T07:04:51.531168","MEAN_MOTION":15.30188737,"ECCENTRICITY":0.0001047,"INCLINATION":53.1608,"RA_OF_ASC_NODE":28.4792,"ARG_OF_PERICENTER":79.4567,"MEAN_ANOMALY":280.6551,"EPHEMERIS_TYPE":0,"CLASSIFICATION_TYPE":"U","NORAD_CAT_ID":64118,"ELEMENT_SET_NO":999,"REV_AT_EPOCH":4582,"BSTAR":0.0010225595,"MEAN_MOTION_DOT":0.00030038,"MEAN_MOTION_DDOT":0}]
